[{"OBJECT_NAME":"STARLINK-5806","OBJECT_ID":"2023-042X","EPOCH":"2026-03-09T08:27:08.919648","MEAN_MOTION":15.02530884,"ECCENTRICITY":0.00010224,"INCLINATION":43.0048,"RA_OF_ASC_NODE":57.5951,"ARG_OF_PERICENTER":261.3003,"MEAN_ANOMALY":98.7723,"EPHEMERIS_TYPE":0,"CLASSIFICATION_TYPE":"U","NORAD_CAT_ID":56007,"ELEMENT_SET_NO":999,"REV_AT_EPOCH":16286,"BSTAR":-1.168786e-5,"MEAN_MOTION_DOT":-3.61e-6,"MEAN_MOTION_DDOT":0},{"OBJECT_NAME":"OBJECT G","OBJECT_ID":"2024-128G","EPOCH":"2026-03-09T22:09:32.997312","MEAN_MOTION":15.06569427,"ECCENTRICITY":0.00508438,"INCLINATION":61.9901,"RA_OF_ASC_NODE":202.8444,"ARG_OF_PERICENTER":113.9294,"MEAN_ANOMALY":246.7137,"EPHEMERIS_TYPE":0,"CLASSIFICATION_TYPE":"U","NORAD_CAT_ID":60241,"ELEMENT_SET_NO":999,"REV_AT_EPOCH":9135,"BSTAR":0.00049882926,"MEAN_MOTION_DOT":7.427e-5,"MEAN_MOTION_DDOT":0}]
